NORAD_CAT_ID,OBJECT_NAME,OBJECT_TYPE,EPOCH,MEAN_MOTION,ECCENTRICITY,INCLINATION,RA_OF_ASC_NODE,ARG_OF_PERICENTER,MEAN_ANOMALY,BSTAR,MEAN_MOTION_DOT,MEAN_MOTION_DDOT,TLE_LINE0,TLE_LINE1,TLE_LINE2,SEMIMAJOR_AXIS,PERIOD,APOGEE,PERIGEE,DECAYED
53563.0,STARLINK-4561,PAYLOAD,2024-02-06 19:22:18,15.08836643,0.000143,53.2158,234.5705,82.1197,277.9958,0.00052864,8.135e-05,0.0,0 STARLINK-4561,1 53563U 22101AN  24037.80715460  .00008135  00000-0  52864-3 0  9990,2 53563  53.2158 234.5705 0001430  82.1197 277.9958 15.08836643 81426,6917.891,95.438,540.745,538.766,0.0
53563.0,STARLINK-4561,PAYLOAD,2024-02-07 12:51:32,15.08852147,0.0001437,53.2156,231.3002,83.7594,276.3561,1.4449e-05,-5.8e-07,0.0,0 STARLINK-4561,1 53563U 22101AN  24038.53579409 -.00000058  00000-0  14449-4 0  9997,2 53563  53.2156 231.3002 0001437  83.7594 276.3561 15.08852147 81536,6917.843,95.437,540.702,538.714,0.0
53563.0,STARLINK-4561,PAYLOAD,2024-02-07 19:13:05,15.08837788,0.000126,53.2154,230.1093,96.2595,263.8541,0.0001199,1.621e-05,0.0,0 STARLINK-4561,1 53563U 22101AN  24038.80075845  .00001621  00000-0  11990-3 0  9995,2 53563  53.2154 230.1093 0001260  96.2595 263.8541 15.08837788 81572,6917.887,95.438,540.624,538.88,0.0
53563.0,STARLINK-4561,PAYLOAD,2024-02-08 19:03:51,15.08850499,0.0001291,53.2162,225.647,101.3204,258.7933,-7.9148e-05,-1.548e-05,0.0,0 STARLINK-4561,1 53563U 22101AN  24039.79434898 -.00001548  00000-0 -79148-4 0  9991,2 53563  53.2162 225.6470 0001291 101.3204 258.7933 15.08850499 81727,6917.848,95.437,540.606,538.82,0.0
53563.0,STARLINK-4561,PAYLOAD,2024-02-08 22:14:37,15.08852216,0.0001555,53.216,225.0519,106.6522,253.4641,-0.00010249,-1.919e-05,0.0,0 STARLINK-4561,1 53563U 22101AN  24039.92682745 -.00001919  00000-0 -10249-3 0  9990,2 53563  53.2160 225.0519 0001555 106.6522 253.4641 15.08852216 81746,6917.843,95.437,540.784,538.632,0.0
53563.0,STARLINK-4561,PAYLOAD,2024-02-09 12:33:06,15.08839072,0.0001326,53.2161,222.3759,100.4456,259.6686,5.8444e-05,6.42e-06,0.0,0 STARLINK-4561,1 53563U 22101AN  24040.52299023  .00000642  00000-0  58444-4 0  9991,2 53563  53.2161 222.3759 0001326 100.4456 259.6686 15.08839072 81839,6917.883,95.438,540.666,538.831,0.0
53563.0,STARLINK-4561,PAYLOAD,2024-02-10 12:23:53,15.08836571,0.0001396,53.2168,217.9148,95.8056,264.3095,3.227e-05,2.26e-06,0.0,0 STARLINK-4561,1 53563U 22101AN  24041.51659415  .00000226  00000-0  32270-4 0  9993,2 53563  53.2168 217.9148 0001396  95.8056 264.3095 15.08836571 81982,6917.891,95.438,540.722,538.79,0.0
53563.0,STARLINK-4561,PAYLOAD,2024-02-10 17:10:03,15.08836947,0.0001391,53.217,217.0226,99.6296,260.4853,3.0935e-05,2.04e-06,0.0,0 STARLINK-4561,1 53563U 22101AN  24041.71531429  .00000204  00000-0  30935-4 0  9991,2 53563  53.2170 217.0226 0001391  99.6296 260.4853 15.08836947 82017,6917.89,95.438,540.717,538.792,0.0
53563.0,STARLINK-4561,PAYLOAD,2024-02-11 12:14:40,15.08837522,0.0001458,53.2176,213.4581,104.9128,255.2026,7.2361e-06,-1.73e-06,0.0,0 STARLINK-4561,1 53563U 22101AN  24042.51019631 -.00000173  00000-0  72361-5 0  9992,2 53563  53.2176 213.4581 0001458 104.9128 255.2026 15.08837522 82132,6917.888,95.438,540.762,538.744,0.0
53563.0,STARLINK-4561,PAYLOAD,2024-02-11 18:36:13,15.08843854,0.0001344,53.2172,212.267,93.7647,266.3499,5.3301e-05,5.61e-06,0.0,0 STARLINK-4561,1 53563U 22101AN  24042.77515137  .00000561  00000-0  53301-4 0  9994,2 53563  53.2172 212.2670 0001344  93.7647 266.3499 15.08843854 82175,6917.869,95.437,540.663,538.804,0.0
53563.0,STARLINK-4561,PAYLOAD,2024-02-12 20:02:23,15.08831356,0.0001248,53.2173,207.5087,72.6862,287.4267,0.00024978,3.689e-05,0.0,0 STARLINK-4561,1 53563U 22101AN  24043.83499661  .00003689  00000-0  24978-3 0  9996,2 53563  53.2173 207.5087 0001248  72.6862 287.4267 15.08831356 82332,6917.907,95.438,540.635,538.908,0.0
53563.0,STARLINK-4561,PAYLOAD,2024-02-13 19:53:10,15.08844509,0.0001298,53.2168,203.0459,93.113,267.0011,5.3864e-05,5.7e-06,0.0,0 STARLINK-4561,1 53563U 22101AN  24044.82859590  .00000570  00000-0  53864-4 0  9990,2 53563  53.2168 203.0459 0001298  93.1130 267.0011 15.08844509 82482,6917.867,95.437,540.63,538.834,0.0
53563.0,STARLINK-4561,PAYLOAD,2024-02-14 03:50:06,15.08841021,0.000127,53.2165,201.5588,92.069,268.0448,6.7811e-05,7.92e-06,0.0,0 STARLINK-4561,1 53563U 22101AN  24045.15979701  .00000792  00000-0  67811-4 0  9997,2 53563  53.2165 201.5588 0001270  92.0690 268.0448 15.08841021 82531,6917.877,95.437,540.621,538.864,0.0
53563.0,STARLINK-4561,PAYLOAD,2024-02-14 14:57:47,15.08851651,0.000123,53.2159,199.4801,86.8125,273.3007,6.783e-05,7.92e-06,0.0,0 STARLINK-4561,1 53563U 22101AN  24045.62347049  .00000792  00000-0  67830-4 0  9994,2 53563  53.2159 199.4801 0001230  86.8125 273.3007 15.08851651 82605,6917.845,95.437,540.561,538.859,0.0
53563.0,STARLINK-4561,PAYLOAD,2024-02-14 16:33:10,15.08852651,0.000122,53.2158,199.1823,89.7522,270.361,7.5626e-05,9.16e-06,0.0,0 STARLINK-4561,1 53563U 22101AN  24045.68970914  .00000916  00000-0  75626-4 0  9993,2 53563  53.2158 199.1823 0001220  89.7522 270.3610 15.08852651 82616,6917.842,95.437,540.551,538.863,0.0
53563.0,STARLINK-4561,PAYLOAD,2024-02-15 10:02:26,15.08840497,0.0001749,53.217,195.9105,99.0059,261.1131,-1.754e-06,-3.16e-06,0.0,0 STARLINK-4561,1 53563U 22101AN  24046.41835931 -.00000316  00000-0 -17540-5 0  9992,2 53563  53.2170 195.9105 0001749  99.0059 261.1131 15.08840497 82725,6917.879,95.438,540.954,538.534,0.0
53563.0,STARLINK-4561,PAYLOAD,2024-02-15 14:48:35,15.08838294,0.0001626,53.2165,195.0172,107.7093,252.4077,-3.4588e-06,-3.43e-06,0.0,0 STARLINK-4561,1 53563U 22101AN  24046.61707994 -.00000343  00000-0 -34588-5 0  9992,2 53563  53.2165 195.0172 0001626 107.7093 252.4077 15.08838294 82750,6917.886,95.438,540.875,538.626,0.0
53563.0,STARLINK-4561,PAYLOAD,2024-02-15 19:34:45,15.08838999,0.0001536,53.2164,194.1268,97.7827,262.334,-1.3016e-05,-4.95e-06,0.0,0 STARLINK-4561,1 53563U 22101AN  24046.81580038 -.00000495  00000-0 -13016-4 0  9992,2 53563  53.2164 194.1268 0001536  97.7827 262.3340 15.08838999 82786,6917.883,95.438,540.811,538.686,0.0
53563.0,STARLINK-4561,PAYLOAD,2024-02-16 14:39:22,15.08842666,0.0001399,53.2164,190.5581,95.0523,265.0629,6.2486e-05,7.07e-06,0.0,0 STARLINK-4561,1 53563U 22101AN  24047.61067666  .00000707  00000-0  62486-4 0  9997,2 53563  53.2164 190.5581 0001399  95.0523 265.0629 15.08842666 82905,6917.872,95.437,540.705,538.769,0.0
53563.0,STARLINK-4561,PAYLOAD,2024-02-16 16:14:45,15.08849705,0.0001418,53.2168,190.2607,95.0894,265.0261,2.8952e-06,-2.42e-06,0.0,0 STARLINK-4561,1 53563U 22101AN  24047.67691288 -.00000242  00000-0  28952-5 0  9992,2 53563  53.2168 190.2607 0001418  95.0894 265.0261 15.08849705 82912,6917.851,95.437,540.697,538.735,0.0
53563.0,STARLINK-4561,PAYLOAD,2024-02-17 09:44:01,15.08825012,0.0001501,53.2181,186.9933,90.3541,269.7623,0.0001119,1.493e-05,0.0,0 STARLINK-4561,1 53563U 22101AN  24048.40556736  .00001493  00000-0  11190-3 0  9994,2 53563  53.2181 186.9933 0001501  90.3541 269.7623 15.08825012 83022,6917.926,95.439,540.83,538.753,0.0
53563.0,STARLINK-4561,PAYLOAD,2024-02-17 14:30:10,15.08832607,0.0001576,53.2179,186.0993,103.2403,256.8765,8.5939e-05,1.08e-05,0.0,0 STARLINK-4561,1 53563U 22101AN  24048.60428437  .00001080  00000-0  85939-4 0  9997,2 53563  53.2179 186.0993 0001576 103.2403 256.8765 15.08832607 83054,6917.903,95.438,540.858,538.678,0.0
53563.0,STARLINK-4561,PAYLOAD,2024-02-17 16:05:33,15.08836208,0.0001452,53.2176,185.7995,100.5745,259.5411,6.0983e-05,6.83e-06,0.0,0 STARLINK-4561,1 53563U 22101AN  24048.67052285  .00000683  00000-0  60983-4 0  9998,2 53563  53.2176 185.7995 0001452 100.5745 259.5411 15.08836208 83061,6917.892,95.438,540.761,538.753,0.0
53563.0,STARLINK-4561,PAYLOAD,2024-02-18 14:20:57,15.08841165,0.0001485,53.2173,181.6377,90.3162,269.8,1.9956e-05,3e-07,0.0,0 STARLINK-4561,1 53563U 22101AN  24049.59788456  .00000030  00000-0  19956-4 0  9996,2 53563  53.2173 181.6377 0001485  90.3162 269.8000 15.08841165 83204,6917.877,95.437,540.769,538.715,0.0
53563.0,STARLINK-4561,PAYLOAD,2024-02-18 15:56:19,15.08849246,0.0001559,53.2172,181.3433,99.861,260.2558,-2.4835e-05,-6.83e-06,0.0,0 STARLINK-4561,1 53563U 22101AN  24049.66412001 -.00000683  00000-0 -24835-4 0  9992,2 53563  53.2172 181.3433 0001559  99.8610 260.2558 15.08849246 83219,6917.852,95.437,540.796,538.639,0.0
53563.0,STARLINK-4561,PAYLOAD,2024-02-19 14:11:45,15.08831285,0.0001825,53.2196,177.1773,92.237,267.8831,6.807e-06,-1.8e-06,0.0,0 STARLINK-4561,1 53563U 22101AN  24050.59149416 -.00000180  00000-0  68070-5 0  9994,2 53563  53.2196 177.1773 0001825  92.2370 267.8831 15.08831285 83357,6917.907,95.438,541.035,538.51,0.0
53563.0,STARLINK-4561,PAYLOAD,2024-02-19 17:22:31,15.08834425,0.000162,53.2186,176.5841,89.4343,270.6835,6.3328e-05,7.2e-06,0.0,0 STARLINK-4561,1 53563U 22101AN  24050.72397101  .00000720  00000-0  63328-4 0  9994,2 53563  53.2186 176.5841 0001620  89.4343 270.6835 15.08834425 83373,6917.897,95.438,540.883,538.642,0.0
53563.0,STARLINK-4561,PAYLOAD,2024-02-20 14:02:31,15.08847713,0.0001532,53.2173,172.7169,84.0658,276.0509,7.192e-06,-1.74e-06,0.0,0 STARLINK-4561,1 53563U 22101AN  24051.58508540 -.00000174  00000-0  71920-5 0  9992,2 53563  53.2173 172.7169 0001532  84.0658 276.0509 15.08847713 83509,6917.857,95.437,540.782,538.662,0.0
53563.0,STARLINK-4561,PAYLOAD,2024-02-20 15:37:54,15.08848963,0.0001769,53.218,172.42,69.9757,290.1426,1.9365e-05,2e-07,0.0,0 STARLINK-4561,1 53563U 22101AN  24051.65132523  .00000020  00000-0  19365-4 0  9997,2 53563  53.2180 172.4200 0001769  69.9757 290.1426 15.08848963 83518,6917.853,95.437,540.942,538.494,0.0
53563.0,STARLINK-4561,PAYLOAD,2024-02-21 12:17:55,15.08836493,0.0002051,53.2185,168.554,65.3384,294.7821,0.00010998,1.462e-05,0.0,0 STARLINK-4561,1 53563U 22101AN  24052.51245059  .00001462  00000-0  10998-3 0  9995,2 53563  53.2185 168.5540 0002051  65.3384 294.7821 15.08836493 83645,6917.891,95.438,541.175,538.337,0.0
